satname,norad_id,inclination_deg,eccentricity,mean_motion_rev_per_day,perigee_km,apogee_km,l1,l2
STARLINK-1008,44714,53.1572,0.0001567,15.31132694,471.35814291584575,473.50511112355343,1 44714U 19074B   26072.94943710  .00010573  00000+0  35820-3 0  9991,2 44714  53.1572 158.9400 0001567  82.1424 277.9755 15.31132694349522
STARLINK-1012,44718,53.1596,0.0001597,15.30614859,472.8823724623808,475.07093756379163,1 44718U 19074F   26074.49919432  .00018102  00000+0  61392-3 0  9990,2 44718  53.1596 151.8168 0001597  47.9416 312.1721 15.30614859349755
STARLINK-1017,44723,53.0545,0.0002024,15.24814722,489.9514617654204,492.7322268015869,1 44723U 19074L   26074.90254244  .00041639  00000+0  16603-2 0  9990,2 44723  53.0545 142.7841 0002024  43.8515 316.2643 15.24814722349912
STARLINK-1019,44724,53.0429,3.21e-05,15.83162257,321.2893204762304,321.71943745276076,1 44724U 19074M   26075.00002315  .00168884  00000+0  75733-3 0  9995,2 44724  53.0429 104.9339 0000321 241.7146 158.3934 15.83162257  5835
STARLINK-1020,44725,53.1621,0.0001373,15.30265664,474.07807724127633,475.95995388314986,1 44725U 19074N   26074.67780131  .00009486  00000+0  33133-3 0  9997,2 44725  53.1621 176.0335 0001373  71.1575 288.9575 15.30265664349421
STARLINK-1031,44736,53.0366,0.0005025,15.9403842,287.6438355240134,294.3463132587776,1 44736U 19074Z   26075.00002315  .00262096  37585-4  70074-3 0  9994,2 44736  53.0366  87.7895 0005025  32.2342  99.1844 15.94038420  6121
STARLINK-1036,44741,53.049,0.000417,15.57238153,392.82971743686176,398.4790594548249,1 44741U 19074AE  26074.58403202  .00080908  00000+0  10864-2 0  9999,2 44741  53.0490 159.9854 0004170 321.9030  38.1685 15.57238153349641
STARLINK-1039,44744,53.0529,0.0001899,15.22336527,497.48906003547563,500.1009188050584,1 44744U 19074AH  26074.65660363  .00043641  00000+0  18715-2 0  9999,2 44744  53.0529 187.6558 0001899 201.5480 158.5436 15.22336527349268
STARLINK-1042,44747,53.0434,0.0001807,15.50124274,415.1351338817285,417.5906661455947,1 44747U 19074AL  26074.26319716  .00028444  00000+0  50296-3 0  9997,2 44747  53.0434  68.0464 0001807 112.1610 247.9589 15.50124274350938
STARLINK-1043,44748,53.052,0.000224,15.54133619,403.15291263390554,406.19161118324064,1 44748U 19074AM  26074.57502488  .00034241  00000+0  52277-3 0  9995,2 44748  53.0520 166.0935 0002240  77.7711 282.3550 15.54133619349562
STARLINK-1046,44751,53.0528,0.0003782,15.44203422,431.1434208497385,436.29590923117576,1 44751U 19074AQ  26074.69537540  .00037075  00000+0  80029-3 0  9993,2 44751  53.0528 182.2986 0003782 198.0015 162.0857 15.44203422349345
STARLINK-1047,44752,53.0689,0.0001638,15.32724789,466.56550879320093,468.80820068801313,1 44752U 19074AR  26074.82159842  .00007347  00000+0  24055-3 0  9990,2 44752  53.0689 117.3584 0001638 236.5185 123.5659 15.32724789350289
STARLINK-1048,44753,53.0516,0.0001365,15.54740783,401.9806334844243,403.8318582905513,1 44753U 19074AS  26075.00002315  .00146485  00000+0  21340-2 0  9994,2 44753  53.0516 138.3770 0001365  15.4320 251.7319 15.54740783  6035
STARLINK-1053,44758,53.0257,0.0006488,15.96420906,280.0354892263085,288.6807428889051,1 44758U 19074AX  26075.00002315  .00358089  62765-4  83832-3 0  9990,2 44758  53.0257  51.0903 0006488  91.8807 211.5716 15.96420906  6066
STARLINK-1063,44768,53.1584,0.000111,15.30387126,473.89574177724444,475.4170619124534,1 44768U 19074BH  26074.69565299 -.00400447  00000+0 -14165-1 0  9998,2 44768  53.1584 191.4935 0001110  60.7832 299.3279 15.30387126349236
STARLINK-1067,44771,53.0512,0.0004686,15.58494904,388.8398725090001,395.18485649341073,1 44771U 19074BL  26074.59572740  .00073252  00000+0  93976-3 0  9997,2 44771  53.0512 175.4872 0004686 354.4656   5.6303 15.58494904349431
STARLINK-1068,44772,53.0471,0.0003367,15.64906289,371.23500538251574,375.78156331699665,1 44772U 19074BM  26074.69151142  .00048573  00000+0  48983-3 0  9994,2 44772  53.0471 150.4569 0003367 328.2976  31.7836 15.64906289349781
STARLINK-1114,44927,53.0493,0.0007594,15.51496434,407.1995232525942,417.5129243609108,1 44927U 20001P   26074.92998010  .00094918  00000+0  15661-2 0  9997,2 44927  53.0493 299.3823 0007594 143.2914 216.8616 15.51496434341063
STARLINK-1123,44930,53.1508,0.0001117,15.28726053,478.853533729628,480.38555654181073,1 44930U 20001S   26074.91460845  .00038823  00000+0  13770-2 0  9992,2 44930  53.1508 316.2668 0001117  59.5992 300.5119 15.28726053340820
STARLINK-1094,44941,53.1593,0.0001042,15.30205413,474.48478962313493,475.91302482620085,1 44941U 20001AD  26074.82306156 -.00000473  00000+0 -38393-5 0  9991,2 44941  53.1593 291.0682 0001042  46.3063 313.8024 15.30205413341178
STARLINK-1122,44949,53.16,0.0001628,15.30168518,474.19332958799623,476.4248116285862,1 44949U 20001AM  26074.91473464 -.00002893  00000+0 -85671-4 0  9994,2 44949  53.1600 290.6949 0001628  80.3255 279.7930 15.30168518341188
STARLINK-1080,44961,53.0514,0.0006418,15.48282592,417.3857030079171,426.11403779476314,1 44961U 20001AZ  26074.23410447  .00088530  00000+0  16385-2 0  9999,2 44961  53.0514 261.6839 0006418 140.0469 220.1012 15.48282592341532
STARLINK-1090,44968,53.155,0.0001588,15.29325441,476.7388620990496,478.9163164526026,1 44968U 20001BG  26075.00002315  .00059793  00000+0  20697-2 0  9993,2 44968  53.1550 277.1591 0001588  89.6037 192.4991 15.29325441  5904
STARLINK-1132,45044,53.1555,0.0003635,15.44043912,431.7125165858606,436.66507744028877,1 45044U 20006A   26074.80783534  .00040037  00000+0  86791-3 0  9999,2 45044  53.1555 224.9452 0003635 227.9667 132.1030 15.44043912337878
STARLINK-1131,45047,53.159,9.41e-05,15.30183202,474.62032052885843,475.91013082773225,1 45047U 20006D   26074.93620268 -.00000774  00000+0 -14025-4 0  9998,2 45047  53.1590 251.9633 0000941 114.3976 245.7123 15.30183202337506
STARLINK-1134,45048,53.0318,0.0007102,15.44856631,426.9629493450684,436.63578295955176,1 45048U 20006E   26074.64566869  .00079433  00000+0  16568-2 0  9991,2 45048  53.0318 209.9705 0007102 201.2910 158.7801 15.44856631338063
STARLINK-1156,45054,53.1582,0.0002267,15.30190479,473.68983619775736,476.79715891535034,1 45054U 20006L   26074.50533735  .00000881  00000+0  41915-4 0  9996,2 45054  53.1582 253.9759 0002267  98.9349 261.1909 15.30190479337430
STARLINK-1159,45057,53.043,3.26e-05,15.84008432,318.89987684618336,319.33653788570336,1 45057U 20006P   26075.00002315  .00070391  00000+0  30860-3 0  9999,2 45057  53.0430 202.9672 0000326  47.7656 268.9122 15.84008432  6047
STARLINK-1166,45060,53.0509,0.0003229,15.46423313,425.00171353127917,429.3965996211955,1 45060U 20006S   26074.91307490  .00073191  00000+0  14498-2 0  9993,2 45060  53.0509 243.0149 0003229 175.2592 184.8445 15.46423313337626
STARLINK-1169,45061,53.1582,0.0001257,15.30205462,474.3372966152183,476.060225225513,1 45061U 20006T   26074.86455900  .00002072  00000+0  82052-4 0  9991,2 45061  53.1582 252.3108 0001257  94.2792 265.8353 15.30205462337497
STARLINK-1171,45062,53.0432,0.0001655,15.64342513,374.01267896648005,376.24801045757977,1 45062U 20006U   26075.00002315  .00111935  00000+0  11383-2 0  9993,2 45062  53.0432 218.5321 0001655   6.2622 147.4526 15.64342513  5887
STARLINK-1133,45064,53.1595,0.0001326,15.30173197,474.38633441782986,476.20386461062026,1 45064U 20006W   26074.93567718  .00000707  00000+0  36028-4 0  9998,2 45064  53.1595 228.7846 0001326 110.4163 249.6980 15.30173197337833
STARLINK-1167,45071,53.1599,0.0001421,15.29575938,476.1049133648621,478.0531657633055,1 45071U 20006AD  26074.83606032  .00018510  00000+0  64780-3 0  9994,2 45071  53.1599 229.3343 0001421  84.3164 275.7998 15.29575938337814
STARLINK-1168,45072,53.1629,0.0001174,15.2934925,476.9515511594136,478.5613149374931,1 45072U 20006AE  26074.65007615 -.00000685  00000+0 -11430-4 0  9998,2 45072  53.1629 230.2636 0001174  83.2192 276.8942 15.29349250337782
STARLINK-1172,45074,53.1583,8.28e-05,15.30490073,473.78171467489483,474.9164863731412,1 45074U 20006AG  26074.91209375  .00022135  00000+0  75049-3 0  9993,2 45074  53.1583 228.9118 0000828  47.4572 312.6499 15.30490073337824
STARLINK-1153,45080,53.1613,5.16e-05,15.29554656,476.78889530407287,477.4963601616546,1 45080U 20006AN  26074.68980788  .00020789  00000+0  72631-3 0  9995,2 45080  53.1613 229.9304 0000516  56.6834 303.4216 15.29554656337797
STARLINK-1151,45081,53.0528,0.0001997,15.66214631,368.4002035793992,371.09530875101245,1 45081U 20006AP  26074.76355562  .00060443  00000+0  57652-3 0  9998,2 45081  53.0528 209.9472 0001997  12.6584 347.4481 15.66214631338075
STARLINK-1185,45087,53.1619,0.0001054,15.33153726,465.6885229272457,467.1313534218125,1 45087U 20006AV  26074.77874433  .00038461  00000+0  11895-2 0  9991,2 45087  53.1619 214.0242 0001054  81.1561 278.9560 15.33153726338027
STARLINK-1183,45088,53.1594,0.0001233,15.30188821,474.4034256757541,476.0934705272566,1 45088U 20006AW  26074.76176638 -.00001313  00000+0 -32217-4 0  9994,2 45088  53.1594 214.3756 0001233  96.6487 263.4655 15.30188821338014
STARLINK-1152,45096,53.0384,0.0002863,15.394355,445.82322497039786,449.7317436040994,1 45096U 20006BE  26074.70245835  .00063907  00000+0  16037-2 0  9998,2 45096  53.0384 178.1018 0002863 249.2137 110.8560 15.39435500338518
STARLINK-1184,45098,53.053,0.0004532,15.10609313,531.2078513414881,537.4733210256054,1 45098U 20006BG  26074.68775313  .00024612  00000+0  14850-2 0  9997,2 45098  53.0530 218.3247 0004532 146.9786 213.1489 15.10609313337949
STARLINK-1193,45100,53.0508,0.000358,15.57239562,393.2252866120116,398.07531832057794,1 45100U 20006BJ  26075.00002315  .00090346  00000+0  12110-2 0  9997,2 45100  53.0508 199.8554 0003580   3.3674 316.5959 15.57239562  5966
STARLINK-1143,45179,53.0464,0.0007033,15.64311098,370.47112209306215,379.97039511631647,1 45179U 20012B   26074.89387823  .00114210  00000+0  11613-2 0  9990,2 45179  53.0464 299.5216 0007033 122.3846 237.7850 15.64311098336892
